{
  "type": "FeatureCollection",
  "features": [
    {
      "type": "Feature",
      "properties": {
        "norad_id": 36224,
        "name": "FENGYUN 1C DEB",
        "group": "fengyun-1c-debris",
        "lat": -12.306178536527613,
        "lon": 46.99579603099941,
        "alt_km": 780.9259507172656,
        "timestamp": "2025-12-23T22:42:33.273043+00:00",
        "meta_object_name": "FENGYUN 1C DEB",
        "meta_object_id": "1999-025DUZ",
        "meta_epoch": "2025-12-21T09:34:36.458112",
        "meta_mean_motion": 14.12766367,
        "meta_eccentricity": 0.01141721,
        "meta_inclination": 98.7788,
        "meta_ra_of_asc_node": 42.567,
        "meta_arg_of_pericenter": 327.3018,
        "meta_mean_anomaly": 32.1122,
        "meta_ephemeris_type": 0,
        "meta_classification_type": "U",
        "meta_norad_cat_id": 36224,
        "meta_element_set_no": 999,
        "meta_rev_at_epoch": 64554,
        "meta_bstar": 0.00010323044,
        "meta_mean_motion_dot": 1.6e-06,
        "meta_mean_motion_ddot": 0,
        "tle_line1": "1 36224U 99025DUZ 25355.39903308  .00000160  00000+0  10323-3 0  9995",
        "tle_line2": "2 36224  98.7788  42.5670 0114172 327.3018  32.1122 14.12766367645548"
      },
      "geometry": {
        "type": "Point",
        "coordinates": [
          46.99579603099941,
          -12.306178536527613
        ]
      }
    },
    {
      "type": "Feature",
      "properties": {
        "norad_id": 36225,
        "name": "FENGYUN 1C DEB",
        "group": "fengyun-1c-debris",
        "lat": -74.09171593635538,
        "lon": 153.96097761178297,
        "alt_km": 526.4936379830006,
        "timestamp": "2025-12-23T22:42:33.273057+00:00",
        "meta_object_name": "FENGYUN 1C DEB",
        "meta_object_id": "1999-025DVA",
        "meta_epoch": "2025-12-22T02:25:20.317440",
        "meta_mean_motion": 15.0669254,
        "meta_eccentricity": 0.00435524,
        "meta_inclination": 98.8181,
        "meta_ra_of_asc_node": 118.8479,
        "meta_arg_of_pericenter": 261.4254,
        "meta_mean_anomaly": 98.2034,
        "meta_ephemeris_type": 0,
        "meta_classification_type": "U",
        "meta_norad_cat_id": 36225,
        "meta_element_set_no": 999,
        "meta_rev_at_epoch": 66913,
        "meta_bstar": 0.0028167564,
        "meta_mean_motion_dot": 0.00042885,
        "meta_mean_motion_ddot": 0,
        "tle_line1": "1 36225U 99025DVA 25356.10092960  .00042885  00000+0  28168-2 0  9994",
        "tle_line2": "2 36225  98.8181 118.8479 0043552 261.4254  98.2034 15.06692540669135"
      },
      "geometry": {
        "type": "Point",
        "coordinates": [
          153.96097761178297,
          -74.09171593635538
        ]
      }
    },
    {
      "type": "Feature",
      "properties": {
        "norad_id": 36226,
        "name": "FENGYUN 1C DEB",
        "group": "fengyun-1c-debris",
        "lat": 41.91601778259221,
        "lon": 32.16207409061088,
        "alt_km": 813.8221418658031,
        "timestamp": "2025-12-23T22:42:33.273068+00:00",
        "meta_object_name": "FENGYUN 1C DEB",
        "meta_object_id": "1999-025DVB",
        "meta_epoch": "2025-12-16T21:56:50.014464",
        "meta_mean_motion": 14.10310742,
        "meta_eccentricity": 0.0095148,
        "meta_inclination": 98.6088,
        "meta_ra_of_asc_node": 33.2455,
        "meta_arg_of_pericenter": 8.6109,
        "meta_mean_anomaly": 351.6668,
        "meta_ephemeris_type": 0,
        "meta_classification_type": "U",
        "meta_norad_cat_id": 36226,
        "meta_element_set_no": 999,
        "meta_rev_at_epoch": 63821,
        "meta_bstar": 0.0011977074,
        "meta_mean_motion_dot": 2.175e-05,
        "meta_mean_motion_ddot": 0,
        "tle_line1": "1 36226U 99025DVB 25350.91446776  .00002175  00000+0  11977-2 0  9994",
        "tle_line2": "2 36226  98.6088  33.2455 0095148   8.6109 351.6668 14.10310742638211"
      },
      "geometry": {
        "type": "Point",
        "coordinates": [
          32.16207409061088,
          41.91601778259221
        ]
      }
    },
    {
      "type": "Feature",
      "properties": {
        "norad_id": 36229,
        "name": "FENGYUN 1C DEB",
        "group": "fengyun-1c-debris",
        "lat": 44.383758513590685,
        "lon": -150.86291137962152,
        "alt_km": 813.7821078117349,
        "timestamp": "2025-12-23T22:42:33.273080+00:00",
        "meta_object_name": "FENGYUN 1C DEB",
        "meta_object_id": "1999-025DVE",
        "meta_epoch": "2025-12-22T20:54:01.687104",
        "meta_mean_motion": 14.0724162,
        "meta_eccentricity": 0.0103206,
        "meta_inclination": 100.9244,
        "meta_ra_of_asc_node": 218.7357,
        "meta_arg_of_pericenter": 95.633,
        "meta_mean_anomaly": 265.6612,
        "meta_ephemeris_type": 0,
        "meta_classification_type": "U",
        "meta_norad_cat_id": 36229,
        "meta_element_set_no": 999,
        "meta_rev_at_epoch": 63398,
        "meta_bstar": 0.0014621,
        "meta_mean_motion_dot": 2.515e-05,
        "meta_mean_motion_ddot": 0,
        "tle_line1": "1 36229U 99025DVE 25356.87085286  .00002515  00000+0  14621-2 0  9990",
        "tle_line2": "2 36229 100.9244 218.7357 0103206  95.6330 265.6612 14.07241620633989"
      },
      "geometry": {
        "type": "Point",
        "coordinates": [
          -150.86291137962152,
          44.383758513590685
        ]
      }
    },
    {
      "type": "Feature",
      "properties": {
        "norad_id": 36230,
        "name": "FENGYUN 1C DEB",
        "group": "fengyun-1c-debris",
        "lat": 58.19770280215411,
        "lon": 57.341099279028654,
        "alt_km": 877.7020004888436,
        "timestamp": "2025-12-23T22:42:33.273092+00:00",
        "meta_object_name": "FENGYUN 1C DEB",
        "meta_object_id": "1999-025DVF",
        "meta_epoch": "2025-12-22T01:01:35.356512",
        "meta_mean_motion": 13.7530541,
        "meta_eccentricity": 0.0216662,
        "meta_inclination": 99.5223,
        "meta_ra_of_asc_node": 71.1449,
        "meta_arg_of_pericenter": 117.9783,
        "meta_mean_anomaly": 244.3476,
        "meta_ephemeris_type": 0,
        "meta_classification_type": "U",
        "meta_norad_cat_id": 36230,
        "meta_element_set_no": 999,
        "meta_rev_at_epoch": 62014,
        "meta_bstar": 0.0015305851,
        "meta_mean_motion_dot": 1.699e-05,
        "meta_mean_motion_ddot": 0,
        "tle_line1": "1 36230U 99025DVF 25356.04277033  .00001699  00000+0  15306-2 0  9997",
        "tle_line2": "2 36230  99.5223  71.1449 0216662 117.9783 244.3476 13.75305410620143"
      },
      "geometry": {
        "type": "Point",
        "coordinates": [
          57.341099279028654,
          58.19770280215411
        ]
      }
    },
    {
      "type": "Feature",
      "properties": {
        "norad_id": 36231,
        "name": "FENGYUN 1C DEB",
        "group": "fengyun-1c-debris",
        "lat": -0.3836119376382314,
        "lon": -27.40956018626382,
        "alt_km": 832.4922451538778,
        "timestamp": "2025-12-23T22:42:33.273102+00:00",
        "meta_object_name": "FENGYUN 1C DEB",
        "meta_object_id": "1999-025DVG",
        "meta_epoch": "2025-12-23T04:00:14.235552",
        "meta_mean_motion": 14.12013076,
        "meta_eccentricity": 0.00601172,
        "meta_inclination": 98.6899,
        "meta_ra_of_asc_node": 331.7765,
        "meta_arg_of_pericenter": 303.5166,
        "meta_mean_anomaly": 56.0271,
        "meta_ephemeris_type": 0,
        "meta_classification_type": "U",
        "meta_norad_cat_id": 36231,
        "meta_element_set_no": 999,
        "meta_rev_at_epoch": 85690,
        "meta_bstar": 0.00013410893,
        "meta_mean_motion_dot": 2.07e-06,
        "meta_mean_motion_ddot": 0,
        "tle_line1": "1 36231U 99025DVG 25357.16683143  .00000207  00000+0  13411-3 0  9995",
        "tle_line2": "2 36231  98.6899 331.7765 0060117 303.5166  56.0271 14.12013076856901"
      },
      "geometry": {
        "type": "Point",
        "coordinates": [
          -27.40956018626382,
          -0.3836119376382314
        ]
      }
    },
    {
      "type": "Feature",
      "properties": {
        "norad_id": 36232,
        "name": "FENGYUN 1C DEB",
        "group": "fengyun-1c-debris",
        "lat": -80.57827435315353,
        "lon": 94.24344315833446,
        "alt_km": 857.0139224665872,
        "timestamp": "2025-12-23T22:42:33.273112+00:00",
        "meta_object_name": "FENGYUN 1C DEB",
        "meta_object_id": "1999-025DVH",
        "meta_epoch": "2025-12-23T04:26:41.049312",
        "meta_mean_motion": 14.12515373,
        "meta_eccentricity": 0.01186662,
        "meta_inclination": 98.7064,
        "meta_ra_of_asc_node": 340.9367,
        "meta_arg_of_pericenter": 358.5083,
        "meta_mean_anomaly": 1.5719,
        "meta_ephemeris_type": 0,
        "meta_classification_type": "U",
        "meta_norad_cat_id": 36232,
        "meta_element_set_no": 999,
        "meta_rev_at_epoch": 61883,
        "meta_bstar": 0.00032090224,
        "meta_mean_motion_dot": 5.91e-06,
        "meta_mean_motion_ddot": 0,
        "tle_line1": "1 36232U 99025DVH 25357.18519733  .00000591  00000+0  32090-3 0  9991",
        "tle_line2": "2 36232  98.7064 340.9367 0118666 358.5083   1.5719 14.12515373618835"
      },
      "geometry": {
        "type": "Point",
        "coordinates": [
          94.24344315833446,
          -80.57827435315353
        ]
      }
    }
  ]
}